[{"OBJECT_NAME":"STARLINK-35066","OBJECT_ID":"2025-191H","EPOCH":"2026-03-09T15:05:23.655264","MEAN_MOTION":15.05648067,"ECCENTRICITY":0.0002472,"INCLINATION":97.6021,"RA_OF_ASC_NODE":301.5195,"ARG_OF_PERICENTER":87.157,"MEAN_ANOMALY":272.994,"EPHEMERIS_TYPE":0,"CLASSIFICATION_TYPE":"U","NORAD_CAT_ID":65386,"ELEMENT_SET_NO":999,"REV_AT_EPOCH":3026,"BSTAR":0.00014046,"MEAN_MOTION_DOT":1.966e-5,"MEAN_MOTION_DDOT":0},{"OBJECT_NAME":"PEGASUS DEB","OBJECT_ID":"1994-029AEV","EPOCH":"2026-03-08T12:20:37.202208","MEAN_MOTION":14.52178672,"ECCENTRICITY":0.02317488,"INCLINATION":81.8165,"RA_OF_ASC_NODE":159.2415,"ARG_OF_PERICENTER":279.066,"MEAN_ANOMALY":78.4379,"EPHEMERIS_TYPE":0,"CLASSIFICATION_TYPE":"U","NORAD_CAT_ID":39310,"ELEMENT_SET_NO":999,"REV_AT_EPOCH":82956,"BSTAR":0.001122164,"MEAN_MOTION_DOT":6.495e-5,"MEAN_MOTION_DDOT":0}]
